{
  "type": "FeatureCollection",
  "features": [
    {
      "type": "Feature",
      "properties": {
        "norad_id": 30136,
        "name": "FENGYUN 1C DEB",
        "group": "fengyun-1c-debris",
        "lat": -69.17815091032865,
        "lon": 39.18532909945642,
        "alt_km": 1010.11591371123,
        "timestamp": "2025-12-15T20:48:54.157576+00:00",
        "meta_object_name": "FENGYUN 1C DEB",
        "meta_object_id": "1999-025SR",
        "meta_epoch": "2025-12-14T04:45:01.814688",
        "meta_mean_motion": 13.95326747,
        "meta_eccentricity": 0.01294229,
        "meta_inclination": 98.5565,
        "meta_ra_of_asc_node": 240.9562,
        "meta_arg_of_pericenter": 65.4807,
        "meta_mean_anomaly": 84.8512,
        "meta_ephemeris_type": 0,
        "meta_classification_type": "U",
        "meta_norad_cat_id": 30136,
        "meta_element_set_no": 999,
        "meta_rev_at_epoch": 96111,
        "meta_bstar": 0.00041256156,
        "meta_mean_motion_dot": 5.6e-06,
        "meta_mean_motion_ddot": 0,
        "tle_line1": "1 30136U 99025SR  25348.19793767  .00000560  00000+0  41256-3 0  9990",
        "tle_line2": "2 30136  98.5565 240.9562 0129422  65.4807  84.8512 13.95326747961114"
      },
      "geometry": {
        "type": "Point",
        "coordinates": [
          39.18532909945642,
          -69.17815091032865
        ]
      }
    },
    {
      "type": "Feature",
      "properties": {
        "norad_id": 30138,
        "name": "FENGYUN 1C DEB",
        "group": "fengyun-1c-debris",
        "lat": -75.5384967948711,
        "lon": -173.61738735494572,
        "alt_km": 841.7078093351001,
        "timestamp": "2025-12-15T20:48:54.157587+00:00",
        "meta_object_name": "FENGYUN 1C DEB",
        "meta_object_id": "1999-025ST",
        "meta_epoch": "2025-12-14T22:27:02.460096",
        "meta_mean_motion": 14.20035826,
        "meta_eccentricity": 0.00204266,
        "meta_inclination": 98.7595,
        "meta_ra_of_asc_node": 42.1755,
        "meta_arg_of_pericenter": 132.384,
        "meta_mean_anomaly": 44.806,
        "meta_ephemeris_type": 0,
        "meta_classification_type": "U",
        "meta_norad_cat_id": 30138,
        "meta_element_set_no": 999,
        "meta_rev_at_epoch": 97432,
        "meta_bstar": 0.00072069679,
        "meta_mean_motion_dot": 1.493e-05,
        "meta_mean_motion_ddot": 0,
        "tle_line1": "1 30138U 99025ST  25348.93544514  .00001493  00000+0  72070-3 0  9992",
        "tle_line2": "2 30138  98.7595  42.1755 0020426 132.3840  44.8060 14.20035826974327"
      },
      "geometry": {
        "type": "Point",
        "coordinates": [
          -173.61738735494572,
          -75.5384967948711
        ]
      }
    },
    {
      "type": "Feature",
      "properties": {
        "norad_id": 30139,
        "name": "FENGYUN 1C DEB",
        "group": "fengyun-1c-debris",
        "lat": -81.25547216457063,
        "lon": -93.74648612511848,
        "alt_km": 794.5730281000597,
        "timestamp": "2025-12-15T20:48:54.157597+00:00",
        "meta_object_name": "FENGYUN 1C DEB",
        "meta_object_id": "1999-025SU",
        "meta_epoch": "2025-12-14T12:58:58.117152",
        "meta_mean_motion": 14.03661183,
        "meta_eccentricity": 0.01309306,
        "meta_inclination": 98.3648,
        "meta_ra_of_asc_node": 191.9869,
        "meta_arg_of_pericenter": 285.393,
        "meta_mean_anomaly": 128.8825,
        "meta_ephemeris_type": 0,
        "meta_classification_type": "U",
        "meta_norad_cat_id": 30139,
        "meta_element_set_no": 999,
        "meta_rev_at_epoch": 96275,
        "meta_bstar": 0.0011534278,
        "meta_mean_motion_dot": 1.915e-05,
        "meta_mean_motion_ddot": 0,
        "tle_line1": "1 30139U 99025SU  25348.54095043  .00001915  00000+0  11534-2 0  9994",
        "tle_line2": "2 30139  98.3648 191.9869 0130930 285.3930 128.8825 14.03661183962751"
      },
      "geometry": {
        "type": "Point",
        "coordinates": [
          -93.74648612511848,
          -81.25547216457063
        ]
      }
    },
    {
      "type": "Feature",
      "properties": {
        "norad_id": 30140,
        "name": "FENGYUN 1C DEB",
        "group": "fengyun-1c-debris",
        "lat": 77.82668203367326,
        "lon": 6.652120102925704,
        "alt_km": 838.0234244700578,
        "timestamp": "2025-12-15T20:48:54.157607+00:00",
        "meta_object_name": "FENGYUN 1C DEB",
        "meta_object_id": "1999-025SV",
        "meta_epoch": "2025-12-12T02:59:27.700224",
        "meta_mean_motion": 14.20742777,
        "meta_eccentricity": 0.00405813,
        "meta_inclination": 98.8269,
        "meta_ra_of_asc_node": 48.9963,
        "meta_arg_of_pericenter": 311.5162,
        "meta_mean_anomaly": 77.8073,
        "meta_ephemeris_type": 0,
        "meta_classification_type": "U",
        "meta_norad_cat_id": 30140,
        "meta_element_set_no": 999,
        "meta_rev_at_epoch": 97135,
        "meta_bstar": 0.0020096414,
        "meta_mean_motion_dot": 4.328e-05,
        "meta_mean_motion_ddot": 0,
        "tle_line1": "1 30140U 99025SV  25346.12462616  .00004328  00000+0  20096-2 0  9996",
        "tle_line2": "2 30140  98.8269  48.9963 0040581 311.5162  77.8073 14.20742777971356"
      },
      "geometry": {
        "type": "Point",
        "coordinates": [
          6.652120102925704,
          77.82668203367326
        ]
      }
    },
    {
      "type": "Feature",
      "properties": {
        "norad_id": 30141,
        "name": "FENGYUN 1C DEB",
        "group": "fengyun-1c-debris",
        "lat": 54.61979554930771,
        "lon": 104.77937051299887,
        "alt_km": 716.6883769725009,
        "timestamp": "2025-12-15T20:48:54.157618+00:00",
        "meta_object_name": "FENGYUN 1C DEB",
        "meta_object_id": "1999-025SW",
        "meta_epoch": "2025-12-14T11:09:38.660256",
        "meta_mean_motion": 14.51616916,
        "meta_eccentricity": 0.0019339,
        "meta_inclination": 99.014,
        "meta_ra_of_asc_node": 270.3599,
        "meta_arg_of_pericenter": 31.5858,
        "meta_mean_anomaly": 328.6491,
        "meta_ephemeris_type": 0,
        "meta_classification_type": "U",
        "meta_norad_cat_id": 30141,
        "meta_element_set_no": 999,
        "meta_rev_at_epoch": 98269,
        "meta_bstar": 0.002826499,
        "meta_mean_motion_dot": 0.0001132,
        "meta_mean_motion_ddot": 0,
        "tle_line1": "1 30141U 99025SW  25348.46503079  .00011320  00000+0  28265-2 0  9991",
        "tle_line2": "2 30141  99.0140 270.3599 0019339  31.5858 328.6491 14.51616916982691"
      },
      "geometry": {
        "type": "Point",
        "coordinates": [
          104.77937051299887,
          54.61979554930771
        ]
      }
    },
    {
      "type": "Feature",
      "properties": {
        "norad_id": 30142,
        "name": "FENGYUN 1C DEB",
        "group": "fengyun-1c-debris",
        "lat": -51.26883545665522,
        "lon": -125.87371217663811,
        "alt_km": 835.5268068828527,
        "timestamp": "2025-12-15T20:48:54.157628+00:00",
        "meta_object_name": "FENGYUN 1C DEB",
        "meta_object_id": "1999-025SX",
        "meta_epoch": "2025-12-14T16:28:07.579776",
        "meta_mean_motion": 14.10494037,
        "meta_eccentricity": 0.01013566,
        "meta_inclination": 99.1284,
        "meta_ra_of_asc_node": 64.4916,
        "meta_arg_of_pericenter": 302.6618,
        "meta_mean_anomaly": 56.4805,
        "meta_ephemeris_type": 0,
        "meta_classification_type": "U",
        "meta_norad_cat_id": 30142,
        "meta_element_set_no": 999,
        "meta_rev_at_epoch": 96326,
        "meta_bstar": 0.0015174339,
        "meta_mean_motion_dot": 2.788e-05,
        "meta_mean_motion_ddot": 0,
        "tle_line1": "1 30142U 99025SX  25348.68619884  .00002788  00000+0  15174-2 0  9991",
        "tle_line2": "2 30142  99.1284  64.4916 0101356 302.6618  56.4805 14.10494037963264"
      },
      "geometry": {
        "type": "Point",
        "coordinates": [
          -125.87371217663811,
          -51.26883545665522
        ]
      }
    },
    {
      "type": "Feature",
      "properties": {
        "norad_id": 30143,
        "name": "FENGYUN 1C DEB",
        "group": "fengyun-1c-debris",
        "lat": 73.08752813970952,
        "lon": 142.65650176455588,
        "alt_km": 944.9294655816611,
        "timestamp": "2025-12-15T20:48:54.157638+00:00",
        "meta_object_name": "FENGYUN 1C DEB",
        "meta_object_id": "1999-025SY",
        "meta_epoch": "2025-12-14T12:11:24.707040",
        "meta_mean_motion": 14.02591432,
        "meta_eccentricity": 0.01037195,
        "meta_inclination": 98.7348,
        "meta_ra_of_asc_node": 171.7253,
        "meta_arg_of_pericenter": 285.9807,
        "meta_mean_anomaly": 128.86,
        "meta_ephemeris_type": 0,
        "meta_classification_type": "U",
        "meta_norad_cat_id": 30143,
        "meta_element_set_no": 999,
        "meta_rev_at_epoch": 96244,
        "meta_bstar": 0.0014034554,
        "meta_mean_motion_dot": 2.225e-05,
        "meta_mean_motion_ddot": 0,
        "tle_line1": "1 30143U 99025SY  25348.50792485  .00002225  00000+0  14035-2 0  9993",
        "tle_line2": "2 30143  98.7348 171.7253 0103719 285.9807 128.8600 14.02591432962449"
      },
      "geometry": {
        "type": "Point",
        "coordinates": [
          142.65650176455588,
          73.08752813970952
        ]
      }
    }
  ]
}